{"type": "FeatureCollection", "features": [ {"type": "Feature", "properties": {"norad_id": 66588, "name": "STARLINK-36076", "group": "last-30-days", "lat": 6.734004459705506, "lon": -159.190180973598, "alt_km": 432.4487659086726, "timestamp": "2025-12-12T14:39:16.771742+00:00", "meta": {"OBJECT_NAME": "STARLINK-36076", "OBJECT_ID": "2025-270A", "EPOCH": "2025-12-12T06:00:00.999648", "MEAN_MOTION": 15.45980255, "ECCENTRICITY": 0.00012976, "INCLINATION": 42.9997, "RA_OF_ASC_NODE": 195.6227, "ARG_OF_PERICENTER": 269.8695, "MEAN_ANOMALY": 251.8633, "EPHEMERIS_TYPE": 0, "CLASSIFICATION_TYPE": "U", "NORAD_CAT_ID": 66588, "ELEMENT_SET_NO": 999, "REV_AT_EPOCH": 432, "BSTAR": -0.047349924, "MEAN_MOTION_DOT": -0.0209681, "MEAN_MOTION_DDOT": 0}, "tle": {"line1": "1 66588U 25270A   25346.25001157 -.02096810  00000+0 -47350-1 0  9997", "line2": "2 66588  42.9997 195.6227 0001297 269.8695 251.8633 15.45980255  4322"}}, "geometry": {"type": "Point", "coordinates": [-159.190180973598, 6.734004459705506]}}, {"type": "Feature", "properties": {"norad_id": 66589, "name": "STARLINK-35447", "group": "last-30-days", "lat": 19.53680296881467, "lon": -144.13524472484485, "alt_km": 412.4298787392836, "timestamp": "2025-12-12T14:39:16.771751+00:00", "meta": {"OBJECT_NAME": "STARLINK-35447", "OBJECT_ID": "2025-270B", "EPOCH": "2025-12-12T06:00:00.999648", "MEAN_MOTION": 15.50619143, "ECCENTRICITY": 0.00019812, "INCLINATION": 42.9999, "RA_OF_ASC_NODE": 195.5916, "ARG_OF_PERICENTER": 278.8889, "MEAN_ANOMALY": 255.2166, "EPHEMERIS_TYPE": 0, "CLASSIFICATION_TYPE": "U", "NORAD_CAT_ID": 66589, "ELEMENT_SET_NO": 999, "REV_AT_EPOCH": 443, "BSTAR": -0.0014411082, "MEAN_MOTION_DOT": -0.00084107, "MEAN_MOTION_DDOT": 0}, "tle": {"line1": "1 66589U 25270B   25346.25001157 -.00084107  00000+0 -14411-2 0  9995", "line2": "2 66589  42.9999 195.5916 0001981 278.8889 255.2166 15.50619143  4436"}}, "geometry": {"type": "Point", "coordinates": [-144.13524472484485, 19.53680296881467]}}, {"type": "Feature", "properties": {"norad_id": 66590, "name": "STARLINK-35429", "group": "last-30-days", "lat": 18.295122611868788, "lon": -145.73138073609724, "alt_km": 412.9508628850872, "timestamp": "2025-12-12T14:39:16.771762+00:00", "meta": {"OBJECT_NAME": "STARLINK-35429", "OBJECT_ID": "2025-270C", "EPOCH": "2025-12-12T06:00:00.999648", "MEAN_MOTION": 15.5068908, "ECCENTRICITY": 0.00020381, "INCLINATION": 43, "RA_OF_ASC_NODE": 195.5971, "ARG_OF_PERICENTER": 255.8339, "MEAN_ANOMALY": 276.2412, "EPHEMERIS_TYPE": 0, "CLASSIFICATION_TYPE": "U", "NORAD_CAT_ID": 66590, "ELEMENT_SET_NO": 999, "REV_AT_EPOCH": 443, "BSTAR": -0.0019608157, "MEAN_MOTION_DOT": -0.00114166, "MEAN_MOTION_DDOT": 0}, "tle": {"line1": "1 66590U 25270C   25346.25001157 -.00114166  00000+0 -19608-2 0  9999", "line2": "2 66590  43.0000 195.5971 0002038 255.8339 276.2412 15.50689080  4437"}}, "geometry": {"type": "Point", "coordinates": [-145.73138073609724, 18.295122611868788]}}, {"type": "Feature", "properties": {"norad_id": 66591, "name": "STARLINK-36058", "group": "last-30-days", "lat": 20.766696718665056, "lon": -142.51072441870767, "alt_km": 412.32943195718235, "timestamp": "2025-12-12T14:39:16.771771+00:00", "meta": {"OBJECT_NAME": "STARLINK-36058", "OBJECT_ID": "2025-270D", "EPOCH": "2025-12-12T06:00:00.999648", "MEAN_MOTION": 15.50649289, "ECCENTRICITY": 0.0002277, "INCLINATION": 42.9997, "RA_OF_ASC_NODE": 195.5867, "ARG_OF_PERICENTER": 266.7121, "MEAN_ANOMALY": 269.2669, "EPHEMERIS_TYPE": 0, "CLASSIFICATION_TYPE": "U", "NORAD_CAT_ID": 66591, "ELEMENT_SET_NO": 999, "REV_AT_EPOCH": 432, "BSTAR": 0.00031485927, "MEAN_MOTION_DOT": 0.00018219, "MEAN_MOTION_DDOT": 0}, "tle": {"line1": "1 66591U 25270D   25346.25001157  .00018219  00000+0  31486-3 0  9999", "line2": "2 66591  42.9997 195.5867 0002277 266.7121 269.2669 15.50649289  4321"}}, "geometry": {"type": "Point", "coordinates": [-142.51072441870767, 20.766696718665056]}}, {"type": "Feature", "properties": {"norad_id": 66592, "name": "STARLINK-36066", "group": "last-30-days", "lat": 21.707623452634614, "lon": -141.23608675278214, "alt_km": 415.01378725087125, "timestamp": "2025-12-12T14:39:16.771780+00:00", "meta": {"OBJECT_NAME": "STARLINK-36066", "OBJECT_ID": "2025-270E", "EPOCH": "2025-12-12T06:00:00.999648", "MEAN_MOTION": 15.51034998, "ECCENTRICITY": 0.00014052, "INCLINATION": 43, "RA_OF_ASC_NODE": 195.5818, "ARG_OF_PERICENTER": 255.0543, "MEAN_ANOMALY": 282.8238, "EPHEMERIS_TYPE": 0, "CLASSIFICATION_TYPE": "U", "NORAD_CAT_ID": 66592, "ELEMENT_SET_NO": 999, "REV_AT_EPOCH": 422, "BSTAR": -0.031583993, "MEAN_MOTION_DOT": -0.01684448, "MEAN_MOTION_DDOT": 0}, "tle": {"line1": "1 66592U 25270E   25346.25001157 -.01684448  00000+0 -31584-1 0  9993", "line2": "2 66592  43.0000 195.5818 0001405 255.0543 282.8238 15.51034998  4224"}}, "geometry": {"type": "Point", "coordinates": [-141.23608675278214, 21.707623452634614]}}, {"type": "Feature", "properties": {"norad_id": 66593, "name": "STARLINK-36031", "group": "last-30-days", "lat": 23.175607052488974, "lon": -139.18383668269922, "alt_km": 412.19531577518046, "timestamp": "2025-12-12T14:39:16.771789+00:00", "meta": {"OBJECT_NAME": "STARLINK-36031", "OBJECT_ID": "2025-270F", "EPOCH": "2025-12-12T06:00:00.999648", "MEAN_MOTION": 15.50801232, "ECCENTRICITY": 0.00016761, "INCLINATION": 42.9999, "RA_OF_ASC_NODE": 195.5772, "ARG_OF_PERICENTER": 276.1104, "MEAN_ANOMALY": 263.8093, "EPHEMERIS_TYPE": 0, "CLASSIFICATION_TYPE": "U", "NORAD_CAT_ID": 66593, "ELEMENT_SET_NO": 999, "REV_AT_EPOCH": 432, "BSTAR": -0.0075553646, "MEAN_MOTION_DOT": -0.0042379, "MEAN_MOTION_DDOT": 0}, "tle": {"line1": "1 66593U 25270F   25346.25001157 -.00423790  00000+0 -75554-2 0  9990", "line2": "2 66593  42.9999 195.5772 0001676 276.1104 263.8093 15.50801232  4327"}}, "geometry": {"type": "Point", "coordinates": [-139.18383668269922, 23.175607052488974]}}, {"type": "Feature", "properties": {"norad_id": 66594, "name": "STARLINK-36032", "group": "last-30-days", "lat": 24.245784136912942, "lon": -137.63468394574107, "alt_km": 411.84763360367197, "timestamp": "2025-12-12T14:39:16.771800+00:00", "meta": {"OBJECT_NAME": "STARLINK-36032", "OBJECT_ID": "2025-270G", "EPOCH": "2025-12-12T06:00:00.999648", "MEAN_MOTION": 15.50561724, "ECCENTRICITY": 0.00019387, "INCLINATION": 42.9999, "RA_OF_ASC_NODE": 195.5726, "ARG_OF_PERICENTER": 275.1193, "MEAN_ANOMALY": 266.6716, "EPHEMERIS_TYPE": 0, "CLASSIFICATION_TYPE": "U", "NORAD_CAT_ID": 66594, "ELEMENT_SET_NO": 999, "REV_AT_EPOCH": 405, "BSTAR": 0.00034109228, "MEAN_MOTION_DOT": 0.00019707, "MEAN_MOTION_DDOT": 0}, "tle": {"line1": "1 66594U 25270G   25346.25001157  .00019707  00000+0  34109-3 0  9990", "line2": "2 66594  42.9999 195.5726 0001938 275.1193 266.6716 15.50561724  4057"}}, "geometry": {"type": "Point", "coordinates": [-137.63468394574107, 24.245784136912942]}}, {"type": "Feature", "properties": {"norad_id": 66595, "name": "STARLINK-35711", "group": "last-30-days", "lat": 25.304159072844044, "lon": -136.05375083319143, "alt_km": 411.46425432107753, "timestamp": "2025-12-12T14:39:16.771809+00:00", "meta": {"OBJECT_NAME": "STARLINK-35711", "OBJECT_ID": "2025-270H", "EPOCH": "2025-12-12T06:00:00.999648", "MEAN_MOTION": 15.50559008, "ECCENTRICITY": 0.0001228, "INCLINATION": 42.9998, "RA_OF_ASC_NODE": 195.5673, "ARG_OF_PERICENTER": 271.1212, "MEAN_ANOMALY": 272.4553, "EPHEMERIS_TYPE": 0, "CLASSIFICATION_TYPE": "U", "NORAD_CAT_ID": 66595, "ELEMENT_SET_NO": 999, "REV_AT_EPOCH": 443, "BSTAR": 0.00075586066, "MEAN_MOTION_DOT": 0.0004422, "MEAN_MOTION_DDOT": 0}, "tle": {"line1": "1 66595U 25270H   25346.25001157  .00044220  00000+0  75586-3 0  9993", "line2": "2 66595  42.9998 195.5673 0001228 271.1212 272.4553 15.50559008  4436"}}, "geometry": {"type": "Point", "coordinates": [-136.05375083319143, 25.304159072844044]}}, {"type": "Feature", "properties": {"norad_id": 66596, "name": "STARLINK-35811", "group": "last-30-days", "lat": 20.375468213973512, "lon": -143.03194952393258, "alt_km": 427.3203697967174, "timestamp": "2025-12-12T14:39:16.771818+00:00", "meta": {"OBJECT_NAME": "STARLINK-35811", "OBJECT_ID": "2025-270J", "EPOCH": "2025-12-12T06:00:00.999648", "MEAN_MOTION": 15.47181646, "ECCENTRICITY": 0.00013465, "INCLINATION": 42.9994, "RA_OF_ASC_NODE": 195.5749, "ARG_OF_PERICENTER": 261.7146, "MEAN_ANOMALY": 279.2464, "EPHEMERIS_TYPE": 0, "CLASSIFICATION_TYPE": "U", "NORAD_CAT_ID": 66596, "ELEMENT_SET_NO": 999, "REV_AT_EPOCH": 443, "BSTAR": -0.045199005, "MEAN_MOTION_DOT": -0.02088437, "MEAN_MOTION_DDOT": 0}, "tle": {"line1": "1 66596U 25270J   25346.25001157 -.02088437  00000+0 -45199-1 0  9991", "line2": "2 66596  42.9994 195.5749 0001346 261.7146 279.2464 15.47181646  4430"}}, "geometry": {"type": "Point", "coordinates": [-143.03194952393258, 20.375468213973512]}}, {"type": "Feature", "properties": {"norad_id": 66597, "name": "STARLINK-35820", "group": "last-30-days", "lat": 27.596456437188678, "lon": -132.4313220124447, "alt_km": 411.34046184514136, "timestamp": "2025-12-12T14:39:16.771828+00:00", "meta": {"OBJECT_NAME": "STARLINK-35820", "OBJECT_ID": "2025-270K", "EPOCH": "2025-12-12T06:00:00.999648", "MEAN_MOTION": 15.50574327, "ECCENTRICITY": 0.00018838, "INCLINATION": 43.0001, "RA_OF_ASC_NODE": 195.5579, "ARG_OF_PERICENTER": 275.01, "MEAN_ANOMALY": 272.5216, "EPHEMERIS_TYPE": 0, "CLASSIFICATION_TYPE": "U", "NORAD_CAT_ID": 66597, "ELEMENT_SET_NO": 999, "REV_AT_EPOCH": 443, "BSTAR": 0.00049855638, "MEAN_MOTION_DOT": 0.0002901, "MEAN_MOTION_DDOT": 0}, "tle": {"line1": "1 66597U 25270K   25346.25001157  .00029010  00000+0  49856-3 0  9996", "line2": "2 66597  43.0001 195.5579 0001883 275.0100 272.5216 15.50574327  4434"}}, "geometry": {"type": "Point", "coordinates": [-132.4313220124447, 27.596456437188678]}}]}